[{"OBJECT_NAME":"STARLINK-3245","OBJECT_ID":"2021-125Q","EPOCH":"2026-03-09T18:27:18.975168","MEAN_MOTION":15.08847997,"ECCENTRICITY":0.00011922,"INCLINATION":53.2168,"RA_OF_ASC_NODE":248.7659,"ARG_OF_PERICENTER":85.6681,"MEAN_ANOMALY":274.4448,"EPHEMERIS_TYPE":0,"CLASSIFICATION_TYPE":"U","NORAD_CAT_ID":50170,"ELEMENT_SET_NO":999,"REV_AT_EPOCH":23660,"BSTAR":3.051661e-6,"MEAN_MOTION_DOT":-2.39e-6,"MEAN_MOTION_DDOT":0},{"OBJECT_NAME":"CZ-6A DEB","OBJECT_ID":"2024-126C","EPOCH":"2026-03-09T22:45:09.534528","MEAN_MOTION":15.08339588,"ECCENTRICITY":0.00034995,"INCLINATION":97.8272,"RA_OF_ASC_NODE":88.0703,"ARG_OF_PERICENTER":249.9832,"MEAN_ANOMALY":110.1019,"EPHEMERIS_TYPE":0,"CLASSIFICATION_TYPE":"U","NORAD_CAT_ID":60213,"ELEMENT_SET_NO":999,"REV_AT_EPOCH":9177,"BSTAR":0.0010886629,"MEAN_MOTION_DOT":0.00016868,"MEAN_MOTION_DDOT":0}]
